{
  "type": "FeatureCollection",
  "features": [
    {
      "type": "Feature",
      "properties": {
        "norad_id": 54741,
        "name": "GALAXY 35 (G-35)",
        "group": "intelsat",
        "lat": 0.0008422572106770928,
        "lon": 144.7421711087567,
        "alt_km": 35793.073496710436,
        "timestamp": "2025-12-26T09:30:53.296555+00:00",
        "meta_object_name": "GALAXY 35 (G-35)",
        "meta_object_id": "2022-170A",
        "meta_epoch": "2025-12-26T03:44:08.901312",
        "meta_mean_motion": 1.00270858,
        "meta_eccentricity": 0.0002375,
        "meta_inclination": 0.0215,
        "meta_ra_of_asc_node": 258.8287,
        "meta_arg_of_pericenter": 17.8539,
        "meta_mean_anomaly": 141.1655,
        "meta_ephemeris_type": 0,
        "meta_classification_type": "U",
        "meta_norad_cat_id": 54741,
        "meta_element_set_no": 999,
        "meta_rev_at_epoch": 1115,
        "meta_bstar": 0,
        "meta_mean_motion_dot": -1.4e-06,
        "meta_mean_motion_ddot": 0,
        "tle_line1": "1 54741U 22170A   25360.15565858 -.00000140  00000+0  00000+0 0  9996",
        "tle_line2": "2 54741   0.0215 258.8287 0002375  17.8539 141.1655  1.00270858 11153"
      },
      "geometry": {
        "type": "Point",
        "coordinates": [
          144.7421711087567,
          0.0008422572106770928
        ]
      }
    },
    {
      "type": "Feature",
      "properties": {
        "norad_id": 54742,
        "name": "GALAXY 36 (G-36)",
        "group": "intelsat",
        "lat": 0.020608062544314534,
        "lon": 148.8671823379292,
        "alt_km": 35787.75841823415,
        "timestamp": "2025-12-26T09:30:53.296567+00:00",
        "meta_object_name": "GALAXY 36 (G-36)",
        "meta_object_id": "2022-170B",
        "meta_epoch": "2025-12-26T03:28:57.984384",
        "meta_mean_motion": 1.00271887,
        "meta_eccentricity": 4.05e-05,
        "meta_inclination": 0.0194,
        "meta_ra_of_asc_node": 98.5441,
        "meta_arg_of_pericenter": 237.6216,
        "meta_mean_anomaly": 81.9797,
        "meta_ephemeris_type": 0,
        "meta_classification_type": "U",
        "meta_norad_cat_id": 54742,
        "meta_element_set_no": 999,
        "meta_rev_at_epoch": 1103,
        "meta_bstar": 0,
        "meta_mean_motion_dot": -1.64e-06,
        "meta_mean_motion_ddot": 0,
        "tle_line1": "1 54742U 22170B   25360.14511556 -.00000164  00000+0  00000+0 0  9998",
        "tle_line2": "2 54742   0.0194  98.5441 0000405 237.6216  81.9797  1.00271887 11035"
      },
      "geometry": {
        "type": "Point",
        "coordinates": [
          148.8671823379292,
          0.020608062544314534
        ]
      }
    },
    {
      "type": "Feature",
      "properties": {
        "norad_id": 57493,
        "name": "GALAXY 37 (G-37)",
        "group": "intelsat",
        "lat": 0.027873461712249775,
        "lon": 110.84416366511061,
        "alt_km": 35794.905584830245,
        "timestamp": "2025-12-26T09:30:53.296578+00:00",
        "meta_object_name": "GALAXY 37 (G-37)",
        "meta_object_id": "2023-112A",
        "meta_epoch": "2025-12-26T02:09:28.040832",
        "meta_mean_motion": 1.00271832,
        "meta_eccentricity": 0.0002144,
        "meta_inclination": 0.0103,
        "meta_ra_of_asc_node": 37.4642,
        "meta_arg_of_pericenter": 240.8765,
        "meta_mean_anomaly": 81.8584,
        "meta_ephemeris_type": 0,
        "meta_classification_type": "U",
        "meta_norad_cat_id": 57493,
        "meta_element_set_no": 999,
        "meta_rev_at_epoch": 880,
        "meta_bstar": 0,
        "meta_mean_motion_dot": 7e-07,
        "meta_mean_motion_ddot": 0,
        "tle_line1": "1 57493U 23112A   25360.08990788  .00000070  00000+0  00000+0 0  9997",
        "tle_line2": "2 57493   0.0103  37.4642 0002144 240.8765  81.8584  1.00271832  8807"
      },
      "geometry": {
        "type": "Point",
        "coordinates": [
          110.84416366511061,
          0.027873461712249775
        ]
      }
    }
  ]
}